{"fetched_at":"2026-07-10T07:59:05.177Z","source":"https://celestrak.org/NORAD/elements/gp.php?NAME=ICEYE&FORMAT=JSON","constellation":"iceye","records":[{"OBJECT_NAME":"ICEYE-X72","OBJECT_ID":"2026-067CS","EPOCH":"2026-07-09T16:00:01.998720","CLASSIFICATION_TYPE":"U","MEAN_MOTION":14.94885297,"ECCENTRICITY":0.0000375,"INCLINATION":97.7629,"RA_OF_ASC_NODE":148.6886,"ARG_OF_PERICENTER":251.4717,"MEAN_ANOMALY":20.8475,"EPHEMERIS_TYPE":0,"NORAD_CAT_ID":68504,"ELEMENT_SET_NO":999,"REV_AT_EPOCH":546,"BSTAR":0.0025152,"MEAN_MOTION_DOT":0.00027457,"MEAN_MOTION_DDOT":0},{"OBJECT_NAME":"ICEYE-X78","OBJECT_ID":"2026-100R","EPOCH":"2026-07-08T16:10:09.743232","CLASSIFICATION_TYPE":"U","MEAN_MOTION":14.91805336,"ECCENTRICITY":0.00038193,"INCLINATION":97.7343,"RA_OF_ASC_NODE":86.7288,"ARG_OF_PERICENTER":67.9217,"MEAN_ANOMALY":292.2407,"EPHEMERIS_TYPE":0,"NORAD_CAT_ID":68995,"ELEMENT_SET_NO":999,"REV_AT_EPOCH":990,"BSTAR":0.000080871235,"MEAN_MOTION_DOT":0.0000076,"MEAN_MOTION_DDOT":0},{"OBJECT_NAME":"ICEYE-X82","OBJECT_ID":"2026-100S","EPOCH":"2026-07-08T16:39:17.583264","CLASSIFICATION_TYPE":"U","MEAN_MOTION":14.91406235,"ECCENTRICITY":0.00058552,"INCLINATION":97.7336,"RA_OF_ASC_NODE":86.6976,"ARG_OF_PERICENTER":79.3227,"MEAN_ANOMALY":280.8651,"EPHEMERIS_TYPE":0,"NORAD_CAT_ID":68996,"ELEMENT_SET_NO":999,"REV_AT_EPOCH":990,"BSTAR":0.00012862744,"MEAN_MOTION_DOT":0.00001229,"MEAN_MOTION_DDOT":0}]}
